[{"OBJECT_NAME":"STARLINK-34213","OBJECT_ID":"2025-112C","EPOCH":"2026-03-09T16:15:11.019168","MEAN_MOTION":15.05661105,"ECCENTRICITY":1.83e-5,"INCLINATION":97.6033,"RA_OF_ASC_NODE":121.4586,"ARG_OF_PERICENTER":166.7794,"MEAN_ANOMALY":193.3438,"EPHEMERIS_TYPE":0,"CLASSIFICATION_TYPE":"U","NORAD_CAT_ID":64148,"ELEMENT_SET_NO":999,"REV_AT_EPOCH":4330,"BSTAR":0.00081526649,"MEAN_MOTION_DOT":0.00011726,"MEAN_MOTION_DDOT":0},{"OBJECT_NAME":"COSMOS 397 DEB","OBJECT_ID":"1971-015L","EPOCH":"2026-03-09T22:11:19.295232","MEAN_MOTION":13.48158936,"ECCENTRICITY":0.07121473,"INCLINATION":65.7094,"RA_OF_ASC_NODE":322.2428,"ARG_OF_PERICENTER":175.4627,"MEAN_ANOMALY":185.3369,"EPHEMERIS_TYPE":0,"CLASSIFICATION_TYPE":"U","NORAD_CAT_ID":5017,"ELEMENT_SET_NO":999,"REV_AT_EPOCH":62618,"BSTAR":0.00068402062,"MEAN_MOTION_DOT":2.026e-5,"MEAN_MOTION_DDOT":0}]
